[
    {
        "Altitude(m)": 624792.7957914411,
        "Argument of Periapsis(deg)": 0.0,
        "Eccentricity": 0.0,
        "Inclination(deg)": 60.0,
        "Latitude(deg)": -59.147159480940616,
        "Longitude(deg)": -35.97347209184263,
        "Mean Anomaly(deg)": -98.18179999999998,
        "RAAN(deg)": 170.00000000000003,
        "Satellite Name": "Test1 764",
        "Satellite Number": 764,
        "Semi-Major Axis(m)": 6980739.136638005,
        "Time(s)": 0
    },
    {
        "Altitude(m)": 624842.1872710142,
        "Argument of Periapsis(deg)": 0.00010418945913296404,
        "Eccentricity": 0.0,
        "Inclination(deg)": 60.0,
        "Latitude(deg)": -59.289241576404365,
        "Longitude(deg)": -34.84396496262498,
        "Mean Anomaly(deg)": -97.56169385453813,
        "RAAN(deg)": 169.99957995086027,
        "Satellite Name": "Test1 764",
        "Satellite Number": 764,
        "Semi-Major Axis(m)": 6980739.136638005,
        "Time(s)": 10
    },
    {
        "Altitude(m)": 624887.7544858628,
        "Argument of Periapsis(deg)": 0.0002083789182659281,
        "Eccentricity": 0.0,
        "Inclination(deg)": 60.0,
        "Latitude(deg)": -59.42071278107747,
        "Longitude(deg)": -33.705037331676905,
        "Mean Anomaly(deg)": -96.94158770907632,
        "RAAN(deg)": 169.99915990172053,
        "Satellite Name": "Test1 764",
        "Satellite Number": 764,
        "Semi-Major Axis(m)": 6980739.136638005,
        "Time(s)": 20
    },
    {
        "Altitude(m)": 624929.4794729191,
        "Argument of Periapsis(deg)": 0.00031256837739889213,
        "Eccentricity": 0.0,
        "Inclination(deg)": 60.0,
        "Latitude(deg)": -59.541435794397,
        "Longitude(deg)": -32.55731151369542,
        "Mean Anomaly(deg)": -96.32148156361447,
        "RAAN(deg)": 169.99873985258077,
        "Satellite Name": "Test1 764",
        "Satellite Number": 764,
        "Semi-Major Axis(m)": 6980739.136638005,
        "Time(s)": 30
    },
    {
        "Altitude(m)": 624967.3457802773,
        "Argument of Periapsis(deg)": 0.0004167578365318562,
        "Eccentricity": 0.0,
        "Inclination(deg)": 60.0,
        "Latitude(deg)": -59.65128244936886,
        "Longitude(deg)": -31.40144480820226,
        "Mean Anomaly(deg)": -95.70137541815268,
        "RAAN(deg)": 169.99831980344106,
        "Satellite Name": "Test1 764",
        "Satellite Number": 764,
        "Semi-Major Axis(m)": 6980739.136638005,
        "Time(s)": 40
    },
    {
        "Altitude(m)": 625001.3384741446,
        "Argument of Periapsis(deg)": 0.0005209472956648203,
        "Eccentricity": 0.0,
        "Inclination(deg)": 60.0,
        "Latitude(deg)": -59.75013435165998,
        "Longitude(deg)": -30.23812866276014,
        "Mean Anomaly(deg)": -95.08126927269083,
        "RAAN(deg)": 169.99789975430127,
        "Satellite Name": "Test1 764",
        "Satellite Number": 764,
        "Semi-Major Axis(m)": 6980739.136638005,
        "Time(s)": 50
    },
    {
        "Altitude(m)": 625031.4441451167,
        "Argument of Periapsis(deg)": 0.0006251367547977843,
        "Eccentricity": 0.0,
        "Inclination(deg)": 60.0,
        "Latitude(deg)": -59.837883485613325,
        "Longitude(deg)": -29.06808599861223,
        "Mean Anomaly(deg)": -94.46116312722906,
        "RAAN(deg)": 169.99747970516154,
        "Satellite Name": "Test1 764",
        "Satellite Number": 764,
        "Semi-Major Axis(m)": 6980739.136638005,
        "Time(s)": 60
    },
    {
        "Altitude(m)": 625057.6509138462,
        "Argument of Periapsis(deg)": 0.0007293262139307483,
        "Eccentricity": 0.0,
        "Inclination(deg)": 60.0,
        "Latitude(deg)": -59.91443278035193,
        "Longitude(deg)": -27.892068221857347,
        "Mean Anomaly(deg)": -93.84105698176721,
        "RAAN(deg)": 169.9970596560218,
        "Satellite Name": "Test1 764",
        "Satellite Number": 764,
        "Semi-Major Axis(m)": 6980739.136638005,
        "Time(s)": 70
    },
    {
        "Altitude(m)": 625079.9484360282,
        "Argument of Periapsis(deg)": 0.0008335156730637124,
        "Eccentricity": 0.0,
        "Inclination(deg)": 60.0,
        "Latitude(deg)": -59.97969662934404,
        "Longitude(deg)": -26.710853448943265,
        "Mean Anomaly(deg)": -93.22095083630536,
        "RAAN(deg)": 169.99663960688207,
        "Satellite Name": "Test1 764",
        "Satellite Number": 764,
        "Semi-Major Axis(m)": 6980739.136638005,
        "Time(s)": 80
    },
    {
        "Altitude(m)": 625098.3279067646,
        "Argument of Periapsis(deg)": 0.0009377051321966765,
        "Eccentricity": 0.0,
        "Inclination(deg)": 60.0,
        "Latitude(deg)": -60.03360135714808,
        "Longitude(deg)": -25.525242942124436,
        "Mean Anomaly(deg)": -92.60084469084352,
        "RAAN(deg)": 169.9962195577423,
        "Satellite Name": "Test1 764",
        "Satellite Number": 764,
        "Semi-Major Axis(m)": 6980739.136638005,
        "Time(s)": 90
    },
    {
        "Altitude(m)": 625112.7820642713,
        "Argument of Periapsis(deg)": 0.0010418945913296407,
        "Eccentricity": 0.0,
        "Inclination(deg)": 60.0,
        "Latitude(deg)": -60.076085627547606,
        "Longitude(deg)": -24.336057294460407,
        "Mean Anomaly(deg)": -91.9807385453817,
        "RAAN(deg)": 169.99579950860257,
        "Satellite Name": "Test1 764",
        "Satellite Number": 764,
        "Semi-Major Axis(m)": 6980739.136638005,
        "Time(s)": 100
    },
    {
        "Altitude(m)": 625123.3051929334,
        "Argument of Periapsis(deg)": 0.0011460840504626045,
        "Eccentricity": 0.0,
        "Inclination(deg)": 60.0,
        "Latitude(deg)": -60.10710078789602,
        "Longitude(deg)": -23.14413390886752,
        "Mean Anomaly(deg)": -91.36063239991985,
        "RAAN(deg)": 169.99537945946284,
        "Satellite Name": "Test1 764",
        "Satellite Number": 764,
        "Semi-Major Axis(m)": 6980739.136638005,
        "Time(s)": 110
    },
    {
        "Altitude(m)": 625129.8931257097,
        "Argument of Periapsis(deg)": 0.0012502735095955685,
        "Eccentricity": 0.0,
        "Inclination(deg)": 60.0,
        "Latitude(deg)": -60.12661114521088,
        "Longitude(deg)": -21.950322781541477,
        "Mean Anomaly(deg)": -90.740526254458,
        "RAAN(deg)": 169.9949594103231,
        "Satellite Name": "Test1 764",
        "Satellite Number": 764,
        "Semi-Major Axis(m)": 6980739.136638005,
        "Time(s)": 120
    },
    {
        "Altitude(m)": 625132.5432459052,
        "Argument of Periapsis(deg)": 0.0013544629687285324,
        "Eccentricity": 0.0,
        "Inclination(deg)": 60.0,
        "Latitude(deg)": -60.134594170392326,
        "Longitude(deg)": -20.755482142473333,
        "Mean Anomaly(deg)": -90.12042010899621,
        "RAAN(deg)": 169.99453936118334,
        "Satellite Name": "Test1 764",
        "Satellite Number": 764,
        "Semi-Major Axis(m)": 6980739.136638005,
        "Time(s)": 130
    },
    {
        "Altitude(m)": 625131.2544882563,
        "Argument of Periapsis(deg)": 0.0014586524278614966,
        "Eccentricity": 0.0,
        "Inclination(deg)": 60.0,
        "Latitude(deg)": -60.13104062785388,
        "Longitude(deg)": -19.56047550878556,
        "Mean Anomaly(deg)": -89.50031396353434,
        "RAAN(deg)": 169.9941193120436,
        "Satellite Name": "Test1 764",
        "Satellite Number": 764,
        "Semi-Major Axis(m)": 6980739.136638005,
        "Time(s)": 140
    },
    {
        "Altitude(m)": 625126.0273393826,
        "Argument of Periapsis(deg)": 0.0015628418869944607,
        "Eccentricity": 0.0,
        "Inclination(deg)": 60.0,
        "Latitude(deg)": -60.11595462882405,
        "Longitude(deg)": -18.366167170117773,
        "Mean Anomaly(deg)": -88.88020781807258,
        "RAAN(deg)": 169.99369926290387,
        "Satellite Name": "Test1 764",
        "Satellite Number": 764,
        "Semi-Major Axis(m)": 6980739.136638005,
        "Time(s)": 150
    },
    {
        "Altitude(m)": 625116.8638376027,
        "Argument of Periapsis(deg)": 0.0016670313461274247,
        "Eccentricity": 0.0,
        "Inclination(deg)": 60.0,
        "Latitude(deg)": -60.089353607604224,
        "Longitude(deg)": -17.17341766509388,
        "Mean Anomaly(deg)": -88.2601016726107,
        "RAAN(deg)": 169.99327921376414,
        "Satellite Name": "Test1 764",
        "Satellite Number": 764,
        "Semi-Major Axis(m)": 6980739.136638005,
        "Time(s)": 160
    },
    {
        "Altitude(m)": 625103.7675720548,
        "Argument of Periapsis(deg)": 0.0017712208052603888,
        "Eccentricity": 0.0,
        "Inclination(deg)": 60.0,
        "Latitude(deg)": -60.05126822110503,
        "Longitude(deg)": -15.983080808103,
        "Mean Anomaly(deg)": -87.6399955271489,
        "RAAN(deg)": 169.99285916462438,
        "Satellite Name": "Test1 764",
        "Satellite Number": 764,
        "Semi-Major Axis(m)": 6980739.136638005,
        "Time(s)": 170
    },
    {
        "Altitude(m)": 625086.7436812142,
        "Argument of Periapsis(deg)": 0.001875410264393353,
        "Eccentricity": 0.0,
        "Inclination(deg)": 60.0,
        "Latitude(deg)": -60.001742173004644,
        "Longitude(deg)": -14.795999286183898,
        "Mean Anomaly(deg)": -87.01988938168708,
        "RAAN(deg)": 169.99243911548464,
        "Satellite Name": "Test1 764",
        "Satellite Number": 764,
        "Semi-Major Axis(m)": 6980739.136638005,
        "Time(s)": 180
    },
    {
        "Altitude(m)": 625065.7988507171,
        "Argument of Periapsis(deg)": 0.0019795997235263173,
        "Eccentricity": 0.0,
        "Inclination(deg)": 60.0,
        "Latitude(deg)": -59.94083196487675,
        "Longitude(deg)": -13.6130003826714,
        "Mean Anomaly(deg)": -86.39978323622522,
        "RAAN(deg)": 169.9920190663449,
        "Satellite Name": "Test1 764",
        "Satellite Number": 764,
        "Semi-Major Axis(m)": 6980739.136638005,
        "Time(s)": 190
    }
]